[
    {
        "Altitude(m)": 554142.8398247439,
        "Argument of Periapsis(deg)": 0.019868973332140504,
        "Eccentricity": 0.0,
        "Inclination(deg)": 53.0,
        "Latitude(deg)": 23.373322032122942,
        "Longitude(deg)": -126.2788566458709,
        "Mean Anomaly(deg)": 150.27487860273274,
        "RAAN(deg)": 174.97043010558406,
        "Satellite Name": "Starlink Shell 1 777",
        "Satellite Number": 777,
        "Semi-Major Axis(m)": 6931778.249405717,
        "Time(s)": 570
    },
    {
        "Altitude(m)": 554090.9233526766,
        "Argument of Periapsis(deg)": 0.02021755181165174,
        "Eccentricity": 0.0,
        "Inclination(deg)": 53.0,
        "Latitude(deg)": 22.896452734162096,
        "Longitude(deg)": -125.87504504003877,
        "Mean Anomaly(deg)": 150.9017098062895,
        "RAAN(deg)": 174.96991133550657,
        "Satellite Name": "Starlink Shell 1 777",
        "Satellite Number": 777,
        "Semi-Major Axis(m)": 6931778.249405717,
        "Time(s)": 580
    },
    {
        "Altitude(m)": 554040.8303632131,
        "Argument of Periapsis(deg)": 0.020566130291162974,
        "Eccentricity": 0.0,
        "Inclination(deg)": 53.0,
        "Latitude(deg)": 22.418318602656065,
        "Longitude(deg)": -125.47433629563592,
        "Mean Anomaly(deg)": 151.5285410098462,
        "RAAN(deg)": 174.96939256542913,
        "Satellite Name": "Starlink Shell 1 777",
        "Satellite Number": 777,
        "Semi-Major Axis(m)": 6931778.249405717,
        "Time(s)": 590
    },
    {
        "Altitude(m)": 553992.6058081192,
        "Argument of Periapsis(deg)": 0.020914708770674213,
        "Eccentricity": 0.0,
        "Inclination(deg)": 53.0,
        "Latitude(deg)": 21.93895704384825,
        "Longitude(deg)": -125.07664553969093,
        "Mean Anomaly(deg)": 152.15537221340293,
        "RAAN(deg)": 174.96887379535164,
        "Satellite Name": "Starlink Shell 1 777",
        "Satellite Number": 777,
        "Semi-Major Axis(m)": 6931778.249405717,
        "Time(s)": 600
    },
    {
        "Altitude(m)": 553946.2938656966,
        "Argument of Periapsis(deg)": 0.021263287250185448,
        "Eccentricity": 0.0,
        "Inclination(deg)": 53.0,
        "Latitude(deg)": 21.458404750054804,
        "Longitude(deg)": -124.68188907105903,
        "Mean Anomaly(deg)": 152.78220341695962,
        "RAAN(deg)": 174.96835502527415,
        "Satellite Name": "Starlink Shell 1 777",
        "Satellite Number": 777,
        "Semi-Major Axis(m)": 6931778.249405717,
        "Time(s)": 610
    },
    {
        "Altitude(m)": 553901.9379165432,
        "Argument of Periapsis(deg)": 0.021611865729696686,
        "Eccentricity": 0.0,
        "Inclination(deg)": 53.0,
        "Latitude(deg)": 20.976697723200946,
        "Longitude(deg)": -124.28998383441703,
        "Mean Anomaly(deg)": 153.40903462051637,
        "RAAN(deg)": 174.9678362551967,
        "Satellite Name": "Starlink Shell 1 777",
        "Satellite Number": 777,
        "Semi-Major Axis(m)": 6931778.249405717,
        "Time(s)": 620
    },
    {
        "Altitude(m)": 553859.5805196634,
        "Argument of Periapsis(deg)": 0.02196044420920792,
        "Eccentricity": 0.0,
        "Inclination(deg)": 53.0,
        "Latitude(deg)": 20.49387129784794,
        "Longitude(deg)": -123.90084857441693,
        "Mean Anomaly(deg)": 154.03586582407306,
        "RAAN(deg)": 174.96731748511922,
        "Satellite Name": "Starlink Shell 1 777",
        "Satellite Number": 777,
        "Semi-Major Axis(m)": 6931778.249405717,
        "Time(s)": 630
    },
    {
        "Altitude(m)": 553819.263388959,
        "Argument of Periapsis(deg)": 0.02230902268871916,
        "Eccentricity": 0.0,
        "Inclination(deg)": 53.0,
        "Latitude(deg)": 20.009960163712112,
        "Longitude(deg)": -123.5144024676658,
        "Mean Anomaly(deg)": 154.6626970276298,
        "RAAN(deg)": 174.96679871504173,
        "Satellite Name": "Starlink Shell 1 777",
        "Satellite Number": 777,
        "Semi-Major Axis(m)": 6931778.249405717,
        "Time(s)": 640
    },
    {
        "Altitude(m)": 553781.0273701173,
        "Argument of Periapsis(deg)": 0.022657601168230398,
        "Eccentricity": 0.0,
        "Inclination(deg)": 53.0,
        "Latitude(deg)": 19.524998387690612,
        "Longitude(deg)": -123.13056627552707,
        "Mean Anomaly(deg)": 155.28952823118647,
        "RAAN(deg)": 174.96627994496427,
        "Satellite Name": "Starlink Shell 1 777",
        "Satellite Number": 777,
        "Semi-Major Axis(m)": 6931778.249405717,
        "Time(s)": 650
    },
    {
        "Altitude(m)": 553744.9124178954,
        "Argument of Periapsis(deg)": 0.023006179647741636,
        "Eccentricity": 0.0,
        "Inclination(deg)": 53.0,
        "Latitude(deg)": 19.039019435396746,
        "Longitude(deg)": -122.74926181539499,
        "Mean Anomaly(deg)": 155.9163594347432,
        "RAAN(deg)": 174.9657611748868,
        "Satellite Name": "Starlink Shell 1 777",
        "Satellite Number": 777,
        "Semi-Major Axis(m)": 6931778.249405717,
        "Time(s)": 660
    },
    {
        "Altitude(m)": 553710.9575738095,
        "Argument of Periapsis(deg)": 0.023354758127252868,
        "Eccentricity": 0.0,
        "Inclination(deg)": 53.0,
        "Latitude(deg)": 18.552056192218032,
        "Longitude(deg)": -122.37041143148623,
        "Mean Anomaly(deg)": 156.5431906382999,
        "RAAN(deg)": 174.96524240480932,
        "Satellite Name": "Starlink Shell 1 777",
        "Satellite Number": 777,
        "Semi-Major Axis(m)": 6931778.249405717,
        "Time(s)": 670
    },
    {
        "Altitude(m)": 553679.2009442755,
        "Argument of Periapsis(deg)": 0.023703336606764106,
        "Eccentricity": 0.0,
        "Inclination(deg)": 53.0,
        "Latitude(deg)": 18.064140983906565,
        "Longitude(deg)": -121.99393897808406,
        "Mean Anomaly(deg)": 157.17002184185662,
        "RAAN(deg)": 174.96472363473185,
        "Satellite Name": "Starlink Shell 1 777",
        "Satellite Number": 777,
        "Semi-Major Axis(m)": 6931778.249405717,
        "Time(s)": 680
    },
    {
        "Altitude(m)": 553649.679679161,
        "Argument of Periapsis(deg)": 0.024051915086275345,
        "Eccentricity": 0.0,
        "Inclination(deg)": 53.0,
        "Latitude(deg)": 17.575305596710876,
        "Longitude(deg)": -121.61976928955262,
        "Mean Anomaly(deg)": 157.7968530454134,
        "RAAN(deg)": 174.9642048646544,
        "Satellite Name": "Starlink Shell 1 777",
        "Satellite Number": 777,
        "Semi-Major Axis(m)": 6931778.249405717,
        "Time(s)": 690
    },
    {
        "Altitude(m)": 553622.4299508189,
        "Argument of Periapsis(deg)": 0.024400493565786583,
        "Eccentricity": 0.0,
        "Inclination(deg)": 53.0,
        "Latitude(deg)": 17.085581297060443,
        "Longitude(deg)": -121.24782765004609,
        "Mean Anomaly(deg)": 158.42368424897003,
        "RAAN(deg)": 174.9636860945769,
        "Satellite Name": "Starlink Shell 1 777",
        "Satellite Number": 777,
        "Semi-Major Axis(m)": 6931778.249405717,
        "Time(s)": 700
    },
    {
        "Altitude(m)": 553597.4869335525,
        "Argument of Periapsis(deg)": 0.024749072045297815,
        "Eccentricity": 0.0,
        "Inclination(deg)": 53.0,
        "Latitude(deg)": 16.59499885081606,
        "Longitude(deg)": -120.87804077583645,
        "Mean Anomaly(deg)": 159.0505154525268,
        "RAAN(deg)": 174.96316732449944,
        "Satellite Name": "Starlink Shell 1 777",
        "Satellite Number": 777,
        "Semi-Major Axis(m)": 6931778.249405717,
        "Time(s)": 710
    },
    {
        "Altitude(m)": 553574.88478358,
        "Argument of Periapsis(deg)": 0.025097650524809053,
        "Eccentricity": 0.0,
        "Inclination(deg)": 53.0,
        "Latitude(deg)": 16.103588542095636,
        "Longitude(deg)": -120.51033628456024,
        "Mean Anomaly(deg)": 159.67734665608344,
        "RAAN(deg)": 174.96264855442197,
        "Satellite Name": "Starlink Shell 1 777",
        "Satellite Number": 777,
        "Semi-Major Axis(m)": 6931778.249405717,
        "Time(s)": 720
    },
    {
        "Altitude(m)": 553554.6566194554,
        "Argument of Periapsis(deg)": 0.02544622900432029,
        "Eccentricity": 0.0,
        "Inclination(deg)": 53.0,
        "Latitude(deg)": 15.61138019168623,
        "Longitude(deg)": -120.14464216429552,
        "Mean Anomaly(deg)": 160.30417785964022,
        "RAAN(deg)": 174.96212978434448,
        "Satellite Name": "Starlink Shell 1 777",
        "Satellite Number": 777,
        "Semi-Major Axis(m)": 6931778.249405717,
        "Time(s)": 730
    },
    {
        "Altitude(m)": 553536.8345030356,
        "Argument of Periapsis(deg)": 0.02579480748383153,
        "Eccentricity": 0.0,
        "Inclination(deg)": 53.0,
        "Latitude(deg)": 15.118403175059488,
        "Longitude(deg)": -119.78088775538158,
        "Mean Anomaly(deg)": 160.93100906319694,
        "RAAN(deg)": 174.96161101426702,
        "Satellite Name": "Starlink Shell 1 777",
        "Satellite Number": 777,
        "Semi-Major Axis(m)": 6931778.249405717,
        "Time(s)": 740
    },
    {
        "Altitude(m)": 553521.4494208806,
        "Argument of Periapsis(deg)": 0.026143385963342765,
        "Eccentricity": 0.0,
        "Inclination(deg)": 53.0,
        "Latitude(deg)": 14.624686439996204,
        "Longitude(deg)": -119.41900321926714,
        "Mean Anomaly(deg)": 161.55784026675363,
        "RAAN(deg)": 174.96109224418956,
        "Satellite Name": "Starlink Shell 1 777",
        "Satellite Number": 777,
        "Semi-Major Axis(m)": 6931778.249405717,
        "Time(s)": 750
    }
]